# From MPC 85835
P/2013 T1 (PANSTARRS),e,24.2728,10.0897,346.0766,5.861696,0.0694495,0.62354448,183.1311,10/20.0/2020,2000,g 16.5,4.0
# From MPC 86643
P/2013 T2 (Schwartz),e,9.4559,0.8180,345.4784,3.489236,0.1512198,0.50116320,49.0577,10/20.0/2020,2000,g 16.0,4.0
# From MPC 88696
P/2013 TL117 (Lemmon),e,9.3647,3.3149,112.2469,3.610158,0.1436861,0.68923551,350.6342,10/20.0/2020,2000,g 17.5,4.0
# From MPC110080
C/2013 US10 (Catalina),h,11/16.8452/2015,148.7649,186.4074,340.5909,1.000622,0.820714,2000,4.4,4.0
# From MPC 91613
P/2013 W1 (PANSTARRS),e,4.6955,117.8478,1.2946,3.491188,0.1510929,0.59286432,5.9969,10/20.0/2020,2000,g 17.5,4.0
# From MPC111767
C/2013 X1 (PANSTARRS),h,04/19.4622/2016,163.1939,131.5729,165.1634,1.000434,1.322946,2000,10.5,2.0
# From MPC101095
P/2013 YG46 (Spacewatch),e,7.8558,48.8691,242.4922,3.276440,0.1661884,0.45490710,225.7220,10/20.0/2020,2000,g 10.0,4.0
# From MPC 89728
P/2014 A2 (Hill),e,24.5435,106.6287,356.2474,5.926019,0.0683218,0.64554027,174.9679,10/20.0/2020,2000,g 15.0,4.0
# From MPC 92981
P/2014 A3 (PANSTARRS),e,13.6808,230.2094,212.8190,4.631182,0.0988932,0.24671563,270.0997,10/20.0/2020,2000,g 12.0,4.0
# From MPC119994
C/2014 B1 (Schwartz),e,28.4049,161.4115,345.7879,11210,0.0000008,0.99914768,0.0000,09/09.0947/2017,2000,g  4.0,4.0
# From MPC102095
P/2014 C1 (TOTAS),e,2.6851,167.7666,24.0679,3.041119,0.1858463,0.44750937,103.2632,10/20.0/2020,2000,g 15.5,4.0
# From MPC 91614
P/2014 E1 (Larson),e,15.9763,39.0303,186.0225,3.711919,0.1378181,0.42349970,322.3460,10/20.0/2020,2000,g 14.0,4.0
# From MPC 94280
C/2014 F3 (Sheppard-Trujillo),e,6.5757,326.7774,2.9970,15.93004,0.0155017,0.64263816,356.8161,10/20.0/2020,2000,g  6.0,4.0
# From MPC 98560
P/2014 L2 (NEOWISE),e,5.1972,149.3498,182.6412,6.303731,0.0622741,0.64806918,142.3177,10/20.0/2020,2000,g 12.0,4.0
# From MPC 90769
P/2014 L3 (Hill),e,6.2778,115.4697,178.6324,8.166709,0.0422312,0.77390177,97.2404,10/20.0/2020,2000,g 16.0,4.0
# From MPC 91614
P/2014 M4 (PANSTARRS),e,3.3353,263.2724,147.9563,5.875284,0.0692087,0.59386311,147.1534,10/20.0/2020,2000,g 15.0,4.0
# From MPC103844
P/2014 MG4 (Spacewatch-PANSTARRS),e,9.3713,311.7343,299.0905,5.011864,0.0878426,0.25979674,235.4801,10/20.0/2020,2000,g  9.5,4.0
# From MPC 98560
P/2014 O3 (PANSTARRS),e,7.8076,87.6421,204.5693,7.562240,0.0473945,0.38626161,112.5268,10/20.0/2020,2000,g 10.5,4.0
# From MPEC 2020-AA5
C/2014 OE4 (PANSTARRS),h,12/12.7817/2016,81.3213,240.4104,65.8772,1.002957,6.248663,2000,11.0,2.0
# From MPC115880
C/2014 R3 (PANSTARRS),e,90.9167,334.0939,113.4514,10641,0.0000009,0.99931628,0.0000,08/08.8461/2016,2000,g  6.5,4.0
# From MPC 91615
P/2014 R5 (Lemmon-PANSTARRS),e,1.0883,126.5571,213.7172,4.056608,0.1206312,0.41351573,279.4103,10/20.0/2020,2000,g 15.0,4.0
# From MPC104790
C/2014 S2 (PANSTARRS),e,64.5058,8.1421,87.3148,170.0044,0.0004446,0.98775945,0.0000,12/09.0422/2015,2000,g 10.0,4.0
# From MPC 91616
P/2014 U4 (PANSTARRS),e,6.4284,11.8970,347.7305,3.507946,0.1500116,0.46519514,342.5243,10/20.0/2020,2000,g 18.0,4.0
# From MPC 95211
P/2014 V1 (PANSTARRS),e,22.5142,166.2026,177.5630,5.481612,0.0767965,0.53408393,161.0502,10/20.0/2020,2000,g 14.0,4.0
# From MPC 93586
P/2014 W1 (PANSTARRS),e,8.8388,246.2459,152.2644,4.461199,0.1045988,0.38865898,239.0334,10/20.0/2020,2000,g 15.5,4.0
# From MPC110493
C/2014 W2 (PANSTARRS),e,82.0555,69.9784,84.9382,570.6359,0.0000723,0.99531463,0.0000,03/08.0885/2016,2000,g  7.5,4.0
# From MPC105542
P/2014 W4 (PANSTARRS),e,15.2710,33.3530,67.8787,6.600116,0.0581268,0.35205240,102.0517,10/20.0/2020,2000,g 11.0,4.0
# From MPC115880
C/2014 W10 (PANSTARRS),e,82.8777,43.1104,43.6531,818.1123,0.0000421,0.99074198,0.0000,03/04.3675/2016,2000,g  8.0,4.0
# From MPC 93587
P/2014 W12 (Gibbs),e,8.5141,299.2893,36.9111,3.518208,0.1493557,0.52408887,323.8072,10/20.0/2020,2000,g 15.0,4.0
# From MPC 94281
P/2014 X1 (Elenin),e,26.0015,61.5041,33.9880,6.210353,0.0636839,0.70851825,134.9321,10/20.0/2020,2000,g 15.0,4.0
# From MPC100579
C/2014 Y1 (PANSTARRS),h,01/16.1836/2016,14.9097,19.5569,182.3293,1.001472,2.253316,2000,9.5,4.0
# From MPC 92275
P/2015 A3 (PANSTARRS),e,172.5289,277.1696,249.2311,7.807521,0.0451788,0.85145909,93.5532,10/20.0/2020,2000,g 20.0,4.0
# From MPC 99270
P/2015 B1 (PANSTARRS),e,18.0289,353.0287,188.8162,9.500046,0.0336601,0.36867103,62.6464,10/20.0/2020,2000,g  8.5,4.0
# From MPC108592
C/2015 B2 (PANSTARRS),e,104.9974,341.8551,284.7171,55607,0.0000001,0.99993940,0.0000,05/05.6528/2016,2000,g  9.5,4.0
# From MPC109141
P/2015 B4 (Lemmon-PANSTARRS),e,1.7600,266.0254,227.4875,8.533967,0.0395346,0.56039999,82.3919,10/20.0/2020,2000,g 11.0,4.0
# From MPC101096
P/2015 C1 (TOTAS-Gibbs),e,13.8890,348.8249,178.3468,6.586384,0.0583087,0.56026009,116.7328,10/20.0/2020,2000,g 12.5,4.0
# From MPC119995
C/2015 D3 (PANSTARRS),h,05/02.7200/2016,128.5477,157.0545,2.9717,1.003747,8.145817,2000,5.5,4.0
# From MPC109141
P/2015 D5 (Kowalski),e,20.4978,74.0600,39.9196,8.973423,0.0366663,0.48882768,87.7794,10/20.0/2020,2000,g  9.0,4.0
# From MPC 96866
P/2015 D6 (Lemmon-PANSTARRS),e,20.2035,46.0545,125.2055,7.147215,0.0515821,0.36211620,99.7783,10/20.0/2020,2000,g 10.5,4.0
# From MPC112390
C/2015 ER61 (PANSTARRS),e,6.3404,235.1698,68.2844,485.2965,0.0000922,0.99785155,0.0000,05/10.4308/2017,2000,g 11.0,2.0
# From MPEC 2018-BF5
C/2015 E61-B (PANSTARRS),e,6.3420,235.2049,68.3736,1326,0.0000204,0.99921268,0.0000,05/10.4084/2017,2000,g 13.5,2.0
# From MPC109142
P/2015 F1 (PANSTARRS),e,2.8025,40.3950,187.4473,3.523246,0.1490355,0.27811291,304.4850,10/20.0/2020,2000,g 12.5,4.0
# From MPC117068
C/2015 H2 (PANSTARRS),h,09/14.2692/2016,33.6581,350.6816,288.0812,1.005645,4.976776,2000,7.5,4.0
# From MPC100280
P/2015 HG16 (PANSTARRS),e,18.8139,58.9701,47.3290,4.749115,0.0952325,0.35065242,219.9715,10/20.0/2020,2000,g 12.5,4.0
# From MPC 95733
P/2015 J3 (NEOWISE),e,8.1309,111.3513,129.4475,3.348457,0.1608559,0.55440108,330.3794,10/20.0/2020,2000,g 16.5,4.0
# From MPC 95213
P/2015 K5 (PANSTARRS),e,39.9451,134.1783,106.3238,6.719771,0.0565812,0.55367604,111.0755,10/20.0/2020,2000,g 13.5,4.0
# From MPC107684
P/2015 M2 (PANSTARRS),e,3.9731,86.5819,225.3757,7.227198,0.0507282,0.18108639,94.7818,10/20.0/2020,2000,g  8.5,4.0
# From MPC112390
C/2015 O1 (PANSTARRS),h,02/19.5393/2018,127.2260,299.8517,89.6329,1.001012,3.729721,2000,6.5,4.0
# From MPC 99819
P/2015 P4 (PANSTARRS),e,8.7178,104.7641,280.5731,6.050235,0.0662286,0.58447058,114.9360,10/20.0/2020,2000,g 14.0,4.0
# From MPC102952
P/2015 PD229 (Cameron-ISON),e,2.0262,342.6374,352.4143,7.181346,0.0512148,0.32811735,96.9305,10/20.0/2020,2000,g 11.5,2.0
# From MPC 99819
P/2015 Q1 (Scotti),e,22.3859,202.9534,199.8498,3.472602,0.1523076,0.47839099,286.6437,10/20.0/2020,2000,g 14.0,4.0
# From MPC 96867
P/2015 Q2 (Pimentel),e,146.4868,228.4046,244.4631,7.346770,0.0494948,0.75095071,92.6063,10/20.0/2020,2000,g 15.5,4.0
# From MPC 98562
P/2015 R1 (PANSTARRS),e,22.6771,48.4453,300.4115,5.880641,0.0691142,0.63398423,134.1719,10/20.0/2020,2000,g 14.0,4.0
# From MPC 95734
P/2015 R2 (PANSTARRS),e,15.4778,168.6024,149.7409,4.488745,0.1036374,0.45278483,202.8293,10/20.0/2020,2000,g 14.5,4.0
# From MPC117068
C/2015 T2 (PANSTARRS),e,124.5503,51.0331,30.6585,2118,0.0000101,0.99672565,0.0000,05/18.5472/2017,2000,g  8.0,4.0
# From MPC 96280
P/2015 T3 (PANSTARRS),e,13.0937,120.5019,178.6330,4.326181,0.1095335,0.50818108,359.9227,12/21.0/2014,2000,g 14.0,4.0
# From MPC102953
C/2015 T4 (PANSTARRS),e,87.9852,251.8186,270.0675,79.87884,0.0013806,0.97121923,0.0000,06/17.0074/2016,2000,g 11.0,4.0
# From MPC102097
C/2015 T5 (Sheppard-Tholen),e,11.0502,311.0714,61.8348,28.14121,0.0066022,0.66836585,11.4334,10/20.0/2020,2000,g  7.5,4.0
# From MPC102953
P/2015 TO19 (Lemmon-PANSTARRS),e,6.4995,321.6498,89.1453,4.556506,0.1013342,0.35799707,171.2302,10/20.0/2020,2000,g 14.0,4.0
# From MPC110080
P/2015 TP200 (LINEAR),e,8.7760,6.9920,82.6456,7.277323,0.0502050,0.53491164,72.9903,10/20.0/2020,2000,g 11.0,4.0
# From MPC101097
C/2015 TQ209 (LINEAR),e,11.3028,223.3579,282.1676,604.4582,0.0000663,0.99765703,0.0000,08/25.5979/2016,2000,g 10.5,4.0
# From MPC115881
C/2015 V1 (PANSTARRS),e,139.2237,197.1882,179.6216,2659,0.0000072,0.99839459,0.0000,12/17.0053/2017,2000,g  6.5,4.0
# From MPC112390
C/2015 V2 (Johnson),h,06/11.9936/2017,49.8611,69.8856,164.9968,1.001869,1.643351,2000,5.0,4.0
# From MPC102953
C/2015 V3 (PANSTARRS),e,86.2534,2.2266,0.7302,637.0457,0.0000613,0.99335544,0.0000,11/24.0463/2015,2000,g  9.0,4.0
# From MPC104791
C/2015 V4 (PANSTARRS),e,60.7802,179.9285,306.9982,18.48213,0.0124044,0.70449061,18.7754,10/20.0/2020,2000,g  8.5,4.0
# From MPC115881
C/2015 VL62 (Lemmon-Yeung-PANSTARRS),h,08/27.9207/2017,165.8161,95.0982,128.7732,1.001165,2.716742,2000,8.0,4.0
# From MPC102098
C/2015 WZ (PANSTARRS),e,134.6084,40.1746,66.7236,146.8193,0.0005540,0.99059987,0.0000,04/13.7945/2016,2000,g 15.0,4.0
# From MPC109142
C/2015 W1 (Gibbs),e,87.3633,114.3163,48.1771,3592,0.0000046,0.99937557,0.0000,05/14.0736/2016,2000,g 13.0,4.0
# From MPC101098
P/2015 W2 (Catalina),e,11.6070,294.2545,117.5121,7.297296,0.0499990,0.63372042,92.3254,10/20.0/2020,2000,g 13.0,4.0
# From MPC101098
P/2015 X1 (PANSTARRS),e,12.1515,161.7711,218.9521,3.631363,0.1424294,0.41899195,262.1103,10/20.0/2020,2000,g 16.0,4.0
# From MPEC 2020-AA5
C/2015 XY1 (Lemmon),h,04/27.8984/2018,148.8550,281.6229,196.2392,1.003035,7.924348,2000,5.5,4.0
# From MPC100281
C/2015 X2 (Catalina),e,72.0730,101.0989,42.3368,15.78486,0.0157160,0.87793381,27.7870,10/20.0/2020,2000,g 16.0,4.0
# From MPC 97498
P/2015 X3 (PANSTARRS),e,24.3853,77.3198,306.6534,5.010072,0.0878897,0.43868481,167.0090,10/20.0/2020,2000,g 15.0,4.0
# From MPC109142
C/2015 X4 (Elenin),e,29.5061,262.6040,176.2172,17.93778,0.0129733,0.81111933,23.5283,10/20.0/2020,2000,g 10.0,4.0
# From MPC119995
C/2015 X5 (PANSTARRS),h,12/29.5544/2017,124.3082,122.3464,27.6651,1.002072,6.797727,2000,7.5,4.0
# From MPC115881
P/2015 X6 (PANSTARRS),e,4.5648,106.9469,329.8705,2.753181,0.2157506,0.17253129,0.6187,10/20.0/2020,2000,g 16.0,4.0
